start=new Date('2023-06-08T00:00:00.000Z').valueOf();
sats=[{"SITE":"AFETR","TIME_SYSTEM":"UTC","OBJECT_TYPE":"PAYLOAD","EPHEMERIS_TYPE":"0","REF_FRAME":"TEME","OBJECT_NAME":"STARLINK-4292","NORAD_CAT_ID":"53175","MEAN_MOTION_DDOT":"0.0000000000000","TLE_LINE2":"2 53175  53.2182   9.2846 0001140  93.4625 266.6498 15.08838941 49379","SEMIMAJOR_AXIS":"6917.884","CLASSIFICATION_TYPE":"U","LAUNCH_DATE":"2022-07-17","ARG_OF_PERICENTER":"93.4625","COUNTRY_CODE":"US","TLE_LINE1":"1 53175U 22083AV  23158.90014080  .00000914  00000-0  75491-4 0  9991","CENTER_NAME":"EARTH","RA_OF_ASC_NODE":"9.2846","ELEMENT_SET_NO":"999","PERIOD":"95.438","ECCENTRICITY":"0.00011400","GP_ID":"233433824","EPOCH":"2023-06-07T21:36:12.165120","BSTAR":"0.00007549100000","MEAN_ANOMALY":"266.6498","PERIAPSIS":"538.960","INCLINATION":"53.2182","REV_AT_EPOCH":"4937","MEAN_MOTION":"15.08838941","RCS_SIZE":"LARGE","FILE":"3927436","APOAPSIS":"540.537","MEAN_MOTION_DOT":"0.00000914","DECAY_DATE":null,"MEAN_ELEMENT_THEORY":"SGP4","OBJECT_ID":"2022-083AV"},{"RA_OF_ASC_NODE":"344.1783","ELEMENT_SET_NO":"999","PERIOD":"95.437","CENTER_NAME":"EARTH","COUNTRY_CODE":"US","TLE_LINE1":"1 53176U 22083AW  23158.90426847 -.00000171  00000-0  73192-5 0  9993","NORAD_CAT_ID":"53176","OBJECT_NAME":"STARLINK-4294","MEAN_MOTION_DDOT":"0.0000000000000","TLE_LINE2":"2 53176  53.2169 344.1783 0001119  89.3571 270.7550 15.08846434 49726","SEMIMAJOR_AXIS":"6917.861","CLASSIFICATION_TYPE":"U","ARG_OF_PERICENTER":"89.3571","LAUNCH_DATE":"2022-07-17","REF_FRAME":"TEME","TIME_SYSTEM":"UTC","SITE":"AFETR","OBJECT_TYPE":"PAYLOAD","EPHEMERIS_TYPE":"0","MEAN_ELEMENT_THEORY":"SGP4","OBJECT_ID":"2022-083AW","DECAY_DATE":null,"APOAPSIS":"540.500","MEAN_MOTION_DOT":"-0.00000171","MEAN_MOTION":"15.08846434","FILE":"3927436","RCS_SIZE":"LARGE","PERIAPSIS":"538.952","INCLINATION":"53.2169","MEAN_ANOMALY":"270.7550","REV_AT_EPOCH":"4972","BSTAR":"0.00000731920000","EPOCH":"2023-06-07T21:42:08.795808","ECCENTRICITY":"0.00011190","GP_ID":"233432073"},{"CENTER_NAME":"EARTH","PERIOD":"95.437","ELEMENT_SET_NO":"999","RA_OF_ASC_NODE":"334.7180","EPHEMERIS_TYPE":"0","OBJECT_TYPE":"PAYLOAD","SITE":"AFETR","TIME_SYSTEM":"UTC","REF_FRAME":"TEME","LAUNCH_DATE":"2022-07-17","ARG_OF_PERICENTER":"64.5787","MEAN_MOTION_DDOT":"0.0000000000000","TLE_LINE2":"2 53177  53.2170 334.7180 0000824  64.5787 295.5290 15.08842686 49845","SEMIMAJOR_AXIS":"6917.872","CLASSIFICATION_TYPE":"U","OBJECT_NAME":"STARLINK-4298","NORAD_CAT_ID":"53177","TLE_LINE1":"1 53177U 22083AX  23158.80215727  .00001187  00000-0  92613-4 0  9991","COUNTRY_CODE":"US","FILE":"3927436","RCS_SIZE":"LARGE","MEAN_MOTION":"15.08842686","MEAN_MOTION_DOT":"0.00001187","APOAPSIS":"540.307","DECAY_DATE":null,"OBJECT_ID":"2022-083AX","MEAN_ELEMENT_THEORY":"SGP4","GP_ID":"233432822","ECCENTRICITY":"0.00008240","EPOCH":"2023-06-07T19:15:06.388128","BSTAR":"0.00009261300000","REV_AT_EPOCH":"4984","PERIAPSIS":"539.167","INCLINATION":"53.2170","MEAN_ANOMALY":"295.5290"},{"MEAN_ELEMENT_THEORY":"SGP4","OBJECT_ID":"2022-083AY","DECAY_DATE":null,"MEAN_MOTION_DOT":"0.00001571","APOAPSIS":"540.607","MEAN_MOTION":"15.08844079","RCS_SIZE":"LARGE","FILE":"3927436","REV_AT_EPOCH":"4949","PERIAPSIS":"538.859","INCLINATION":"53.2178","MEAN_ANOMALY":"263.8239","BSTAR":"0.00011677000000","EPOCH":"2023-06-07T19:51:32.392800","ECCENTRICITY":"0.00012640","GP_ID":"233433574","ELEMENT_SET_NO":"999","PERIOD":"95.437","RA_OF_ASC_NODE":"359.6128","CENTER_NAME":"EARTH","COUNTRY_CODE":"US","TLE_LINE1":"1 53178U 22083AY  23158.82745825  .00001571  00000-0  11677-3 0  9998","NORAD_CAT_ID":"53178","OBJECT_NAME":"STARLINK-4280","LAUNCH_DATE":"2022-07-17","ARG_OF_PERICENTER":"96.2897","MEAN_MOTION_DDOT":"0.0000000000000","TLE_LINE2":"2 53178  53.2178 359.6128 0001264  96.2897 263.8239 15.08844079 49495","SEMIMAJOR_AXIS":"6917.868","CLASSIFICATION_TYPE":"U","REF_FRAME":"TEME","TIME_SYSTEM":"UTC","SITE":"AFETR","EPHEMERIS_TYPE":"0","OBJECT_TYPE":"PAYLOAD"},{"MEAN_MOTION_DOT":"0.00001864","APOAPSIS":"540.575","MEAN_MOTION":"15.08849611","FILE":"3927436","RCS_SIZE":"LARGE","MEAN_ELEMENT_THEORY":"SGP4","OBJECT_ID":"2022-083AZ","DECAY_DATE":null,"EPOCH":"2023-06-07T21:16:15.893184","ECCENTRICITY":"0.00012420","GP_ID":"233433325","REV_AT_EPOCH":"5007","INCLINATION":"53.2172","PERIAPSIS":"538.857","MEAN_ANOMALY":"251.0620","BSTAR":"0.00013514000000","PERIOD":"95.437","ELEMENT_SET_NO":"999","RA_OF_ASC_NODE":"318.9466","CENTER_NAME":"EARTH","REF_FRAME":"TEME","SITE":"AFETR","TIME_SYSTEM":"UTC","OBJECT_TYPE":"PAYLOAD","EPHEMERIS_TYPE":"0","COUNTRY_CODE":"US","TLE_LINE1":"1 53179U 22083AZ  23158.88629506  .00001864  00000-0  13514-3 0  9999","NORAD_CAT_ID":"53179","OBJECT_NAME":"STARLINK-4276","LAUNCH_DATE":"2022-07-17","ARG_OF_PERICENTER":"109.0506","MEAN_MOTION_DDOT":"0.0000000000000","TLE_LINE2":"2 53179  53.2172 318.9466 0001242 109.0506 251.0620 15.08849611 50075","SEMIMAJOR_AXIS":"6917.851","CLASSIFICATION_TYPE":"U"},{"CENTER_NAME":"EARTH","PERIOD":"95.437","ELEMENT_SET_NO":"999","RA_OF_ASC_NODE":"319.3642","OBJECT_TYPE":"PAYLOAD","EPHEMERIS_TYPE":"0","SITE":"AFETR","TIME_SYSTEM":"UTC","REF_FRAME":"TEME","ARG_OF_PERICENTER":"85.9078","LAUNCH_DATE":"2022-07-17","TLE_LINE2":"2 53180  53.2156 319.3642 0000989  85.9078 274.2027 15.08841186 50069","MEAN_MOTION_DDOT":"0.0000000000000","SEMIMAJOR_AXIS":"6917.877","CLASSIFICATION_TYPE":"U","OBJECT_NAME":"STARLINK-4258","NORAD_CAT_ID":"53180","TLE_LINE1":"1 53180U 22083BA  23158.83943233  .00000660  00000-0  59517-4 0  9999","COUNTRY_CODE":"US","FILE":"3927436","RCS_SIZE":"LARGE","MEAN_MOTION":"15.08841186","MEAN_MOTION_DOT":"0.00000660","APOAPSIS":"540.426","DECAY_DATE":null,"OBJECT_ID":"2022-083BA","MEAN_ELEMENT_THEORY":"SGP4","GP_ID":"233432573","ECCENTRICITY":"0.00009890","EPOCH":"2023-06-07T20:08:46.953312","BSTAR":"0.00005951700000","REV_AT_EPOCH":"5006","MEAN_ANOMALY":"274.2027","PERIAPSIS":"539.058","INCLINATION":"53.2156"},{"BSTAR":"0.00005305000000","REV_AT_EPOCH":"5004","INCLINATION":"53.2162","PERIAPSIS":"539.290","MEAN_ANOMALY":"334.3246","GP_ID":"233432323","ECCENTRICITY":"0.00006570","EPOCH":"2023-06-07T16:56:37.879872","DECAY_DATE":null,"OBJECT_ID":"2022-083BB","MEAN_ELEMENT_THEORY":"SGP4","FILE":"3927436","RCS_SIZE":"LARGE","MEAN_MOTION":"15.08840252","MEAN_MOTION_DOT":"0.00000557","APOAPSIS":"540.199","LAUNCH_DATE":"2022-07-17","ARG_OF_PERICENTER":"25.7779","TLE_LINE2":"2 53181  53.2162 319.9535 0000657  25.7779 334.3246 15.08840252 50048","SEMIMAJOR_AXIS":"6917.880","MEAN_MOTION_DDOT":"0.0000000000000","CLASSIFICATION_TYPE":"U","OBJECT_NAME":"STARLINK-4273","NORAD_CAT_ID":"53181","TLE_LINE1":"1 53181U 22083BB  23158.70599398  .00000557  00000-0  53050-4 0  9996","COUNTRY_CODE":"US","EPHEMERIS_TYPE":"0","OBJECT_TYPE":"PAYLOAD","SITE":"AFETR","TIME_SYSTEM":"UTC","REF_FRAME":"TEME","CENTER_NAME":"EARTH","PERIOD":"95.438","ELEMENT_SET_NO":"999","RA_OF_ASC_NODE":"319.9535"},{"REF_FRAME":"TEME","EPHEMERIS_TYPE":"0","OBJECT_TYPE":"PAYLOAD","TIME_SYSTEM":"UTC","SITE":"AFETR","TLE_LINE1":"1 53182U 22083BC  23158.86471655  .00001112  00000-0  87927-4 0  9997","COUNTRY_CODE":"US","LAUNCH_DATE":"2022-07-17","ARG_OF_PERICENTER":"92.1645","TLE_LINE2":"2 53182  53.2169 334.4351 0000996  92.1645 267.9461 15.08842992 49850","SEMIMAJOR_AXIS":"6917.871","MEAN_MOTION_DDOT":"0.0000000000000","CLASSIFICATION_TYPE":"U","OBJECT_NAME":"STARLINK-4278","NORAD_CAT_ID":"53182","ELEMENT_SET_NO":"999","PERIOD":"95.437","RA_OF_ASC_NODE":"334.4351","CENTER_NAME":"EARTH","EPOCH":"2023-06-07T20:45:11.509920","GP_ID":"233433075","ECCENTRICITY":"0.00009960","REV_AT_EPOCH":"4985","PERIAPSIS":"539.047","INCLINATION":"53.2169","MEAN_ANOMALY":"267.9461","BSTAR":"0.00008792700000","MEAN_MOTION_DOT":"0.00001112","APOAPSIS":"540.425","RCS_SIZE":"LARGE","FILE":"3927436","MEAN_MOTION":"15.08842992","OBJECT_ID":"2022-083BC","MEAN_ELEMENT_THEORY":"SGP4","DECAY_DATE":null},{"DECAY_DATE":null,"OBJECT_ID":"2022-083BD","MEAN_ELEMENT_THEORY":"SGP4","RCS_SIZE":"LARGE","FILE":"3927436","MEAN_MOTION":"15.08844174","MEAN_MOTION_DOT":"0.00000378","APOAPSIS":"540.491","BSTAR":"0.00004184600000","REV_AT_EPOCH":"4999","INCLINATION":"53.2173","PERIAPSIS":"538.974","MEAN_ANOMALY":"270.9465","GP_ID":"233433825","ECCENTRICITY":"0.00010960","EPOCH":"2023-06-07T20:57:05.974848","CENTER_NAME":"EARTH","ELEMENT_SET_NO":"999","PERIOD":"95.437","RA_OF_ASC_NODE":"324.3210","ARG_OF_PERICENTER":"89.1653","LAUNCH_DATE":"2022-07-17","MEAN_MOTION_DDOT":"0.0000000000000","TLE_LINE2":"2 53183  53.2173 324.3210 0001096  89.1653 270.9465 15.08844174 49992","SEMIMAJOR_AXIS":"6917.868","CLASSIFICATION_TYPE":"U","OBJECT_NAME":"STARLINK-4268","NORAD_CAT_ID":"53183","TLE_LINE1":"1 53183U 22083BD  23158.87298582  .00000378  00000-0  41846-4 0  9998","COUNTRY_CODE":"US","EPHEMERIS_TYPE":"0","OBJECT_TYPE":"PAYLOAD","SITE":"AFETR","TIME_SYSTEM":"UTC","REF_FRAME":"TEME"},{"APOAPSIS":"540.352","MEAN_MOTION_DOT":"0.00000906","RCS_SIZE":"LARGE","FILE":"3927436","MEAN_MOTION":"15.08838641","OBJECT_ID":"2022-083BE","MEAN_ELEMENT_THEORY":"SGP4","DECAY_DATE":null,"EPOCH":"2023-06-07T18:00:11.161152","GP_ID":"233432074","ECCENTRICITY":"0.00008710","PERIAPSIS":"539.147","INCLINATION":"53.2173","MEAN_ANOMALY":"273.0487","REV_AT_EPOCH":"5006","BSTAR":"0.00007501000000","RA_OF_ASC_NODE":"319.5469","ELEMENT_SET_NO":"999","PERIOD":"95.438","CENTER_NAME":"EARTH","REF_FRAME":"TEME","EPHEMERIS_TYPE":"0","OBJECT_TYPE":"PAYLOAD","SITE":"AFETR","TIME_SYSTEM":"UTC","TLE_LINE1":"1 53184U 22083BE  23158.75012918  .00000906  00000-0  75010-4 0  9990","COUNTRY_CODE":"US","MEAN_MOTION_DDOT":"0.0000000000000","TLE_LINE2":"2 53184  53.2173 319.5469 0000871  87.0605 273.0487 15.08838641 50069","SEMIMAJOR_AXIS":"6917.885","CLASSIFICATION_TYPE":"U","ARG_OF_PERICENTER":"87.0605","LAUNCH_DATE":"2022-07-17","NORAD_CAT_ID":"53184","OBJECT_NAME":"STARLINK-4257"}];
